IRIDIUM 7               
1 24793U 97020B   25224.55188546  .00000370  00000+0  12078-3 0  9990
2 24793  86.4019 153.3157 0001966  81.1611 278.9808 14.35973902479982
IRIDIUM 5               
1 24795U 97020D   25224.61769379  .00003501  00000+0  28570-3 0  9991
2 24795  86.3845  57.6866 0105841 296.3483  62.6907 14.94746966493894
IRIDIUM 4               
1 24796U 97020E   25224.49998710  .00000348  00000+0  11100-3 0  9998
2 24796  86.4014 150.1809 0002200  82.0146 278.1301 14.36874460480559
IRIDIUM 914             
1 24836U 97030A   25224.55386449  .00000432  00000+0  12850-3 0  9998
2 24836  86.3996 158.5855 0003474  64.4146 295.7412 14.40912541615245
IRIDIUM 16              
1 24841U 97030F   25224.59835822  .00000360  00000+0  11075-3 0  9990
2 24841  86.4083 181.5919 0001031 159.4262 200.6978 14.38748234475112
IRIDIUM 911             
1 24842U 97030G   25224.58840969  .00000562  00000+0  14698-3 0  9996
2 24842  86.4510 180.3061 0011837 270.3134  89.6713 14.47692416483244
IRIDIUM 17              
1 24870U 97034B   25224.48110478  .00000422  00000+0  13335-3 0  9997
2 24870  86.3959 211.0816 0002508 128.9881 231.1540 14.37865181471679
IRIDIUM 920             
1 24871U 97034C   25224.44867615  .00000453  00000+0  13318-3 0  9991
2 24871  86.4013 190.2129 0009312 253.4797 106.5380 14.41572773474685
